{
    "links": {
        "self": "http://www.neowsapp.com/rest/v1/neo/54087841?api_key=iIulBulltgU6a56xZRHN4H3l9WmuAYTsLGpBGhQ2"
    },
    "id": "54087841",
    "neo_reference_id": "54087841",
    "name": "(2020 VO5)",
    "designation": "2020 VO5",
    "nasa_jpl_url": "http://ssd.jpl.nasa.gov/sbdb.cgi?sstr=54087841",
    "absolute_magnitude_h": 22.87,
    "estimated_diameter": {
        "kilometers": {
            "estimated_diameter_min": 0.0708851033,
            "estimated_diameter_max": 0.1585039096
        },
        "meters": {
            "estimated_diameter_min": 70.885103303,
            "estimated_diameter_max": 158.5039095776
        },
        "miles": {
            "estimated_diameter_min": 0.0440459475,
            "estimated_diameter_max": 0.0984897328
        },
        "feet": {
            "estimated_diameter_min": 232.5626823206,
            "estimated_diameter_max": 520.0259666984
        }
    },
    "is_potentially_hazardous_asteroid": false,
    "close_approach_data": [
        {
            "close_approach_date": "1963-11-18",
            "close_approach_date_full": "1963-Nov-18 02:39",
            "epoch_date_close_approach": -193180860000,
            "relative_velocity": {
                "kilometers_per_second": "33.1571414925",
                "kilometers_per_hour": "119365.7093731188",
                "miles_per_hour": "74169.2098046471"
            },
            "miss_distance": {
                "astronomical": "0.3706484761",
                "lunar": "144.1822572029",
                "kilometers": "55448222.543305907",
                "miles": "34453927.8385472366"
            },
            "orbiting_body": "Earth"
        },
        {
            "close_approach_date": "2020-11-05",
            "close_approach_date_full": "2020-Nov-05 05:34",
            "epoch_date_close_approach": 1604554440000,
            "relative_velocity": {
                "kilometers_per_second": "23.9136310135",
                "kilometers_per_hour": "86089.0716485435",
                "miles_per_hour": "53492.401214063"
            },
            "miss_distance": {
                "astronomical": "0.0853716727",
                "lunar": "33.2095806803",
                "kilometers": "12771420.394257149",
                "miles": "7935792.6453966962"
            },
            "orbiting_body": "Earth"
        }
    ],
    "orbital_data": {
        "orbit_id": "5",
        "orbit_determination_date": "2020-11-23 05:21:51",
        "first_observation_date": "2020-11-14",
        "last_observation_date": "2020-11-21",
        "data_arc_in_days": 7,
        "observations_used": 43,
        "orbit_uncertainty": "9",
        "minimum_orbit_intersection": ".0346553",
        "jupiter_tisserand_invariant": "5.349",
        "epoch_osculation": "2459169.5",
        "eccentricity": ".6424251936214542",
        "semi_major_axis": "1.12082800172699",
        "inclination": "6.785039901080011",
        "ascending_node_longitude": "23.03661492671768",
        "orbital_period": "433.4179418640689",
        "perihelion_distance": ".4007798557011807",
        "perihelion_argument": "255.7802604265297",
        "aphelion_distance": "1.840876147752799",
        "perihelion_time": "2459108.486878549095",
        "mean_anomaly": "50.67792908585798",
        "mean_motion": ".8306070543634886",
        "equinox": "J2000",
        "orbit_class": {
            "orbit_class_type": "APO",
            "orbit_class_description": "Near-Earth asteroid orbits which cross the Earth’s orbit similar to that of 1862 Apollo",
            "orbit_class_range": "a (semi-major axis) > 1.0 AU; q (perihelion) < 1.017 AU"
        }
    },
    "is_sentry_object": false
}